sat19176
1 19176U 78100T   20046.67227812  .00000099  00000-0  11624-2 0  9991
2 19176  82.0875 257.7276 0160699 337.8683  85.7030 11.95507274384145
